start=new Date('2022-08-09T00:00:00.000Z').valueOf();
sats=[{"TIME_SYSTEM":"UTC","REV_AT_EPOCH":"12773","TLE_LINE2":"2 45545  53.0533 224.1282 0002075  54.9818 305.1366 15.06416006127737","TLE_LINE1":"1 45545U 20025Q   22220.42613044  .00004845  00000-0  34380-3 0  9996","ELEMENT_SET_NO":"999","FILE":"3532128","BSTAR":"0.00034380000000","REF_FRAME":"TEME","SITE":"AFETR","MEAN_MOTION":"15.06416006","MEAN_ELEMENT_THEORY":"SGP4","CENTER_NAME":"EARTH","RCS_SIZE":"LARGE","PERIAPSIS":"545.728","COUNTRY_CODE":"US","RA_OF_ASC_NODE":"224.1282","LAUNCH_DATE":"2020-04-22","EPHEMERIS_TYPE":"0","EPOCH":"2022-08-08T10:13:37.670016","GP_ID":"209829747","OBJECT_NAME":"STARLINK-1374","MEAN_MOTION_DDOT":"0.0000000000000","APOAPSIS":"548.602","MEAN_MOTION_DOT":"0.00004845","ARG_OF_PERICENTER":"54.9818","NORAD_CAT_ID":"45545","ECCENTRICITY":"0.00020750","INCLINATION":"53.0533","OBJECT_ID":"2020-025Q","PERIOD":"95.591","DECAY_DATE":null,"OBJECT_TYPE":"PAYLOAD","MEAN_ANOMALY":"305.1366","CLASSIFICATION_TYPE":"U","SEMIMAJOR_AXIS":"6925.300"},{"RCS_SIZE":"LARGE","CENTER_NAME":"EARTH","MEAN_ELEMENT_THEORY":"SGP4","MEAN_MOTION":"15.06397865","SITE":"AFETR","COUNTRY_CODE":"US","PERIAPSIS":"546.177","REV_AT_EPOCH":"12779","TIME_SYSTEM":"UTC","ELEMENT_SET_NO":"999","TLE_LINE1":"1 45546U 20025R   22220.70258713 -.00000158  00000-0  82772-5 0  9990","FILE":"3532305","BSTAR":"0.00000827720000","REF_FRAME":"TEME","TLE_LINE2":"2 45546  53.0547 222.9011 0001506  75.6658 284.4498 15.06397865127791","ECCENTRICITY":"0.00015060","ARG_OF_PERICENTER":"75.6658","NORAD_CAT_ID":"45546","MEAN_MOTION_DOT":"-0.00000158","SEMIMAJOR_AXIS":"6925.355","MEAN_ANOMALY":"284.4498","OBJECT_TYPE":"PAYLOAD","CLASSIFICATION_TYPE":"U","OBJECT_ID":"2020-025R","DECAY_DATE":null,"PERIOD":"95.592","INCLINATION":"53.0547","LAUNCH_DATE":"2020-04-22","EPHEMERIS_TYPE":"0","RA_OF_ASC_NODE":"222.9011","APOAPSIS":"548.263","MEAN_MOTION_DDOT":"0.0000000000000","GP_ID":"209859689","OBJECT_NAME":"STARLINK-1375","EPOCH":"2022-08-08T16:51:43.528032"},{"COUNTRY_CODE":"US","PERIAPSIS":"546.287","RCS_SIZE":"LARGE","SITE":"AFETR","MEAN_MOTION":"15.06398478","MEAN_ELEMENT_THEORY":"SGP4","CENTER_NAME":"EARTH","FILE":"3532305","BSTAR":"0.00016267000000","REF_FRAME":"TEME","TLE_LINE1":"1 45547U 20025S   22220.69891815  .00002142  00000-0  16267-3 0  9993","ELEMENT_SET_NO":"999","TLE_LINE2":"2 45547  53.0553 222.9176 0001344  68.1493 291.9639 15.06398478127808","TIME_SYSTEM":"UTC","REV_AT_EPOCH":"12780","CLASSIFICATION_TYPE":"U","MEAN_ANOMALY":"291.9639","OBJECT_TYPE":"PAYLOAD","SEMIMAJOR_AXIS":"6925.353","INCLINATION":"53.0553","PERIOD":"95.592","DECAY_DATE":null,"OBJECT_ID":"2020-025S","ECCENTRICITY":"0.00013440","MEAN_MOTION_DOT":"0.00002142","NORAD_CAT_ID":"45547","ARG_OF_PERICENTER":"68.1493","MEAN_MOTION_DDOT":"0.0000000000000","APOAPSIS":"548.149","EPOCH":"2022-08-08T16:46:26.528160","OBJECT_NAME":"STARLINK-1377","GP_ID":"209859940","EPHEMERIS_TYPE":"0","LAUNCH_DATE":"2020-04-22","RA_OF_ASC_NODE":"222.9176"},{"SEMIMAJOR_AXIS":"6925.311","CLASSIFICATION_TYPE":"U","OBJECT_TYPE":"PAYLOAD","MEAN_ANOMALY":"290.0082","DECAY_DATE":null,"PERIOD":"95.591","OBJECT_ID":"2020-025T","INCLINATION":"53.0516","ECCENTRICITY":"0.00013650","NORAD_CAT_ID":"45548","ARG_OF_PERICENTER":"70.1054","MEAN_MOTION_DOT":"0.00003338","APOAPSIS":"548.122","MEAN_MOTION_DDOT":"0.0000000000000","OBJECT_NAME":"STARLINK-1378","GP_ID":"209858689","EPOCH":"2022-08-08T17:23:33.548640","EPHEMERIS_TYPE":"0","LAUNCH_DATE":"2020-04-22","RA_OF_ASC_NODE":"222.8021","COUNTRY_CODE":"US","PERIAPSIS":"546.231","RCS_SIZE":"LARGE","CENTER_NAME":"EARTH","MEAN_ELEMENT_THEORY":"SGP4","MEAN_MOTION":"15.06412183","SITE":"AFETR","FILE":"3532305","BSTAR":"0.00024279000000","REF_FRAME":"TEME","ELEMENT_SET_NO":"999","TLE_LINE1":"1 45548U 20025T   22220.72469385  .00003338  00000-0  24279-3 0  9991","TLE_LINE2":"2 45548  53.0516 222.8021 0001365  70.1054 290.0082 15.06412183127795","REV_AT_EPOCH":"12779","TIME_SYSTEM":"UTC"},{"PERIAPSIS":"546.170","COUNTRY_CODE":"US","MEAN_MOTION":"15.06393372","SITE":"AFETR","MEAN_ELEMENT_THEORY":"SGP4","CENTER_NAME":"EARTH","RCS_SIZE":"LARGE","TLE_LINE2":"2 45550  53.0528 224.7918 0001536  80.2724 279.8438 15.06393372127724","ELEMENT_SET_NO":"999","TLE_LINE1":"1 45550U 20025V   22220.27775936 -.00000460  00000-0 -11970-4 0  9996","FILE":"3532128","REF_FRAME":"TEME","BSTAR":"-0.00001197000000","TIME_SYSTEM":"UTC","REV_AT_EPOCH":"12772","INCLINATION":"53.0528","OBJECT_ID":"2020-025V","PERIOD":"95.593","DECAY_DATE":null,"MEAN_ANOMALY":"279.8438","OBJECT_TYPE":"PAYLOAD","CLASSIFICATION_TYPE":"U","SEMIMAJOR_AXIS":"6925.369","MEAN_MOTION_DOT":"-0.00000460","ARG_OF_PERICENTER":"80.2724","NORAD_CAT_ID":"45550","ECCENTRICITY":"0.00015360","EPOCH":"2022-08-08T06:39:58.408704","GP_ID":"209829248","OBJECT_NAME":"STARLINK-1390","MEAN_MOTION_DDOT":"0.0000000000000","APOAPSIS":"548.298","RA_OF_ASC_NODE":"224.7918","LAUNCH_DATE":"2020-04-22","EPHEMERIS_TYPE":"0"},{"EPHEMERIS_TYPE":"0","LAUNCH_DATE":"2020-04-22","RA_OF_ASC_NODE":"202.9964","MEAN_MOTION_DDOT":"0.0000000000000","APOAPSIS":"548.332","EPOCH":"2022-08-08T16:17:12.409440","GP_ID":"209859191","OBJECT_NAME":"STARLINK-1294","ECCENTRICITY":"0.00016690","MEAN_MOTION_DOT":"0.00002132","ARG_OF_PERICENTER":"70.7546","NORAD_CAT_ID":"45551","MEAN_ANOMALY":"289.3624","OBJECT_TYPE":"PAYLOAD","CLASSIFICATION_TYPE":"U","SEMIMAJOR_AXIS":"6925.311","INCLINATION":"53.0551","OBJECT_ID":"2020-025W","DECAY_DATE":null,"PERIOD":"95.591","TIME_SYSTEM":"UTC","REV_AT_EPOCH":"12807","TLE_LINE1":"1 45551U 20025W   22220.67861585  .00002132  00000-0  16194-3 0  9995","ELEMENT_SET_NO":"999","BSTAR":"0.00016194000000","FILE":"3532305","REF_FRAME":"TEME","TLE_LINE2":"2 45551  53.0551 202.9964 0001669  70.7546 289.3624 15.06412320128070","RCS_SIZE":"LARGE","MEAN_MOTION":"15.06412320","SITE":"AFETR","MEAN_ELEMENT_THEORY":"SGP4","CENTER_NAME":"EARTH","COUNTRY_CODE":"US","PERIAPSIS":"546.020"},{"MEAN_MOTION_DDOT":"0.0000000000000","APOAPSIS":"334.031","EPOCH":"2022-08-08T09:43:16.073760","OBJECT_NAME":"STARLINK-1322","GP_ID":"209859441","EPHEMERIS_TYPE":"0","LAUNCH_DATE":"2020-04-22","RA_OF_ASC_NODE":"110.6219","CLASSIFICATION_TYPE":"U","OBJECT_TYPE":"PAYLOAD","MEAN_ANOMALY":"86.0923","SEMIMAJOR_AXIS":"6708.797","INCLINATION":"53.0391","DECAY_DATE":null,"PERIOD":"91.144","OBJECT_ID":"2020-025X","ECCENTRICITY":"0.00050220","MEAN_MOTION_DOT":"0.00709845","NORAD_CAT_ID":"45552","ARG_OF_PERICENTER":"273.9523","BSTAR":"0.00345940000000","FILE":"3532305","REF_FRAME":"TEME","ELEMENT_SET_NO":"999","TLE_LINE1":"1 45552U 20025X   22220.40504715  .00709845  00000-0  34594-2 0  9994","TLE_LINE2":"2 45552  53.0391 110.6219 0005022 273.9523  86.0923 15.79922540129345","TIME_SYSTEM":"UTC","REV_AT_EPOCH":"12934","COUNTRY_CODE":"US","PERIAPSIS":"327.293","RCS_SIZE":"LARGE","MEAN_MOTION":"15.79922540","SITE":"AFETR","CENTER_NAME":"EARTH","MEAN_ELEMENT_THEORY":"SGP4"},{"LAUNCH_DATE":"2020-04-22","EPHEMERIS_TYPE":"0","RA_OF_ASC_NODE":"202.9344","APOAPSIS":"548.438","MEAN_MOTION_DDOT":"0.0000000000000","GP_ID":"209858190","OBJECT_NAME":"STARLINK-1323","EPOCH":"2022-08-08T16:33:08.361504","ECCENTRICITY":"0.00018460","ARG_OF_PERICENTER":"75.9378","NORAD_CAT_ID":"45553","MEAN_MOTION_DOT":"0.00005242","SEMIMAJOR_AXIS":"6925.295","MEAN_ANOMALY":"284.1816","OBJECT_TYPE":"PAYLOAD","CLASSIFICATION_TYPE":"U","OBJECT_ID":"2020-025Y","PERIOD":"95.591","DECAY_DATE":null,"INCLINATION":"53.0536","REV_AT_EPOCH":"12678","TIME_SYSTEM":"UTC","ELEMENT_SET_NO":"999","TLE_LINE1":"1 45553U 20025Y   22220.68968011  .00005242  00000-0  37039-3 0  9996","BSTAR":"0.00037039000000","FILE":"3532305","REF_FRAME":"TEME","TLE_LINE2":"2 45553  53.0536 202.9344 0001846  75.9378 284.1816 15.06417552126788","RCS_SIZE":"LARGE","CENTER_NAME":"EARTH","MEAN_ELEMENT_THEORY":"SGP4","MEAN_MOTION":"15.06417552","SITE":"AFETR","COUNTRY_CODE":"US","PERIAPSIS":"545.881"},{"REV_AT_EPOCH":"12807","TIME_SYSTEM":"UTC","BSTAR":"0.00021959000000","FILE":"3532305","REF_FRAME":"TEME","ELEMENT_SET_NO":"999","TLE_LINE1":"1 45554U 20025Z   22220.68135322  .00002992  00000-0  21959-3 0  9991","TLE_LINE2":"2 45554  53.0547 202.9680 0001800  57.8334 302.2830 15.06417464128079","RCS_SIZE":"LARGE","MEAN_ELEMENT_THEORY":"SGP4","CENTER_NAME":"EARTH","MEAN_MOTION":"15.06417464","SITE":"AFETR","COUNTRY_CODE":"US","PERIAPSIS":"545.913","LAUNCH_DATE":"2020-04-22","EPHEMERIS_TYPE":"0","RA_OF_ASC_NODE":"202.9680","APOAPSIS":"548.407","MEAN_MOTION_DDOT":"0.0000000000000","OBJECT_NAME":"STARLINK-1325","GP_ID":"209858440","EPOCH":"2022-08-08T16:21:08.918208","ECCENTRICITY":"0.00018000","NORAD_CAT_ID":"45554","ARG_OF_PERICENTER":"57.8334","MEAN_MOTION_DOT":"0.00002992","SEMIMAJOR_AXIS":"6925.295","CLASSIFICATION_TYPE":"U","MEAN_ANOMALY":"302.2830","OBJECT_TYPE":"PAYLOAD","DECAY_DATE":null,"PERIOD":"95.591","OBJECT_ID":"2020-025Z","INCLINATION":"53.0547"},{"RCS_SIZE":"LARGE","MEAN_MOTION":"15.06403598","SITE":"AFETR","MEAN_ELEMENT_THEORY":"SGP4","CENTER_NAME":"EARTH","COUNTRY_CODE":"US","PERIAPSIS":"546.172","TIME_SYSTEM":"UTC","REV_AT_EPOCH":"12810","BSTAR":"0.00002753300000","FILE":"3532305","REF_FRAME":"TEME","TLE_LINE1":"1 45555U 20025AA  22220.91083259  .00000129  00000-0  27533-4 0  9994","ELEMENT_SET_NO":"999","TLE_LINE2":"2 45555  53.0549 201.9517 0001488  75.4089 284.7065 15.06403598128106","ECCENTRICITY":"0.00014880","MEAN_MOTION_DOT":"0.00000129","NORAD_CAT_ID":"45555","ARG_OF_PERICENTER":"75.4089","CLASSIFICATION_TYPE":"U","OBJECT_TYPE":"PAYLOAD","MEAN_ANOMALY":"284.7065","SEMIMAJOR_AXIS":"6925.338","INCLINATION":"53.0549","PERIOD":"95.592","DECAY_DATE":null,"OBJECT_ID":"2020-025AA","LAUNCH_DATE":"2020-04-22","EPHEMERIS_TYPE":"0","RA_OF_ASC_NODE":"201.9517","MEAN_MOTION_DDOT":"0.0000000000000","APOAPSIS":"548.233","EPOCH":"2022-08-08T21:51:35.935776","OBJECT_NAME":"STARLINK-1327","GP_ID":"209859690"}];
